{
"type": "FeatureCollection",
"name": "vellore_public_facilities",
"crs": { "type": "name", "properties": { "name": "urn:ogc:def:crs:OGC:1.3:CRS84" } },
"features": [
{ "type": "Feature", "properties": { "element": "node", "id": 1754861232, "name": null, "amenity": "hospital", "healthcare": "hospital", "operator": "Christian Medical College" }, "geometry": { "type": "Point", "coordinates": [ 79.1340678, 12.8793817 ] } },
{ "type": "Feature", "properties": { "element": "node", "id": 1754861237, "name": "Bagayam Police Station", "amenity": "police", "healthcare": null, "operator": null }, "geometry": { "type": "Point", "coordinates": [ 79.1336955, 12.8757507 ] } },
{ "type": "Feature", "properties": { "element": "node", "id": 1754879019, "name": "Vidayam Nursery school", "amenity": "school", "healthcare": null, "operator": null }, "geometry": { "type": "Point", "coordinates": [ 79.131065, 12.8775648 ] } },
{ "type": "Feature", "properties": { "element": "node", "id": 2473170498, "name": "Government Higher Secondary School, Sathuvachari.", "amenity": "school", "healthcare": null, "operator": null }, "geometry": { "type": "Point", "coordinates": [ 79.1559689, 12.9377925 ] } },
{ "type": "Feature", "properties": { "element": "node", "id": 3532931901, "name": "Muncipal school ground", "amenity": "school", "healthcare": null, "operator": null }, "geometry": { "type": "Point", "coordinates": [ 78.8738261, 12.9446527 ] } },
{ "type": "Feature", "properties": { "element": "node", "id": 4023814678, "name": "Vallalar School", "amenity": "school", "healthcare": null, "operator": null }, "geometry": { "type": "Point", "coordinates": [ 79.1674089, 12.9390263 ] } },
{ "type": "Feature", "properties": { "element": "node", "id": 4693432898, "name": "Thorappadi Higher Secondary School", "amenity": "school", "healthcare": null, "operator": null }, "geometry": { "type": "Point", "coordinates": [ 79.1227994, 12.889965 ] } },
{ "type": "Feature", "properties": { "element": "node", "id": 4693432900, "name": "Auxilium girls hr. Sec school", "amenity": "school", "healthcare": null, "operator": null }, "geometry": { "type": "Point", "coordinates": [ 79.1451367, 12.9563042 ] } },
{ "type": "Feature", "properties": { "element": "node", "id": 4693434800, "name": "Auxilium arts & science college", "amenity": "college", "healthcare": null, "operator": null }, "geometry": { "type": "Point", "coordinates": [ 79.1452371, 12.9576369 ] } },
{ "type": "Feature", "properties": { "element": "node", "id": 4693434846, "name": "Primary school, gov.", "amenity": "school", "healthcare": null, "operator": null }, "geometry": { "type": "Point", "coordinates": [ 79.1377761, 12.9692283 ] } },
{ "type": "Feature", "properties": { "element": "node", "id": 4693434962, "name": "Muslim High School", "amenity": "school", "healthcare": null, "operator": null }, "geometry": { "type": "Point", "coordinates": [ 79.1314235, 12.9071047 ] } },
{ "type": "Feature", "properties": { "element": "node", "id": 4693434964, "name": "Vellore Fire station", "amenity": "fire_station", "healthcare": null, "operator": null }, "geometry": { "type": "Point", "coordinates": [ 79.1312446, 12.9141234 ] } },
{ "type": "Feature", "properties": { "element": "node", "id": 4693434975, "name": "Viruthampattu police station", "amenity": "police", "healthcare": null, "operator": null }, "geometry": { "type": "Point", "coordinates": [ 79.1414205, 12.9534269 ] } },
{ "type": "Feature", "properties": { "element": "node", "id": 4693434976, "name": "Don bosco matric hr. Sec.", "amenity": "school", "healthcare": null, "operator": null }, "geometry": { "type": "Point", "coordinates": [ 79.141613, 12.9536123 ] } },
{ "type": "Feature", "properties": { "element": "node", "id": 4693434995, "name": "Sru Venkateswara Higher secondary school", "amenity": "school", "healthcare": null, "operator": null }, "geometry": { "type": "Point", "coordinates": [ 79.1315014, 12.9137833 ] } },
{ "type": "Feature", "properties": { "element": "node", "id": 5802050653, "name": "டிரினிட்டி பள்ளி", "amenity": "school", "healthcare": null, "operator": null }, "geometry": { "type": "Point", "coordinates": [ 79.1449701, 12.9458409 ] } },
{ "type": "Feature", "properties": { "element": "node", "id": 6265405421, "name": "corporation muslim high school", "amenity": "school", "healthcare": null, "operator": null }, "geometry": { "type": "Point", "coordinates": [ 79.1253475, 12.90231 ] } },
{ "type": "Feature", "properties": { "element": "node", "id": 6303051398, "name": "AMS", "amenity": "school", "healthcare": null, "operator": null }, "geometry": { "type": "Point", "coordinates": [ 79.1285774, 12.9246765 ] } },
{ "type": "Feature", "properties": { "element": "node", "id": 6303051399, "name": "Government Girls Higher Secondary School", "amenity": "school", "healthcare": null, "operator": null }, "geometry": { "type": "Point", "coordinates": [ 79.1353515, 12.9271056 ] } },
{ "type": "Feature", "properties": { "element": "node", "id": 6303051403, "name": "KASPA SCHOOL", "amenity": "school", "healthcare": null, "operator": null }, "geometry": { "type": "Point", "coordinates": [ 79.1255284, 12.9096207 ] } },
{ "type": "Feature", "properties": { "element": "node", "id": 6303051404, "name": "KOSAPET SCHOOL", "amenity": "school", "healthcare": null, "operator": null }, "geometry": { "type": "Point", "coordinates": [ 79.1343771, 12.9085261 ] } },
{ "type": "Feature", "properties": { "element": "node", "id": 6303051405, "name": "Salvanpet School", "amenity": "school", "healthcare": null, "operator": null }, "geometry": { "type": "Point", "coordinates": [ 79.1404709, 12.9083533 ] } },
{ "type": "Feature", "properties": { "element": "node", "id": 6303051406, "name": "Sathuvacheri School", "amenity": "school", "healthcare": null, "operator": null }, "geometry": { "type": "Point", "coordinates": [ 79.1588727, 12.9409758 ] } },
{ "type": "Feature", "properties": { "element": "node", "id": 6367812224, "name": null, "amenity": "school", "healthcare": null, "operator": null }, "geometry": { "type": "Point", "coordinates": [ 79.0568939, 12.9161007 ] } },
{ "type": "Feature", "properties": { "element": "node", "id": 6367904201, "name": null, "amenity": "college", "healthcare": null, "operator": null }, "geometry": { "type": "Point", "coordinates": [ 79.0890042, 12.9161535 ] } },
{ "type": "Feature", "properties": { "element": "node", "id": 6914957590, "name": "Sri Narayani Hospital and Research Centre", "amenity": "hospital", "healthcare": "hospital", "operator": null }, "geometry": { "type": "Point", "coordinates": [ 79.089919, 12.8709241 ] } },
{ "type": "Feature", "properties": { "element": "node", "id": 6915394481, "name": "A.S.A Hospital", "amenity": "hospital", "healthcare": "hospital", "operator": null }, "geometry": { "type": "Point", "coordinates": [ 79.1629033, 12.9370042 ] } },
{ "type": "Feature", "properties": { "element": "node", "id": 6932166589, "name": "Vellore Eye and Dental Hospital", "amenity": "hospital", "healthcare": "hospital", "operator": null }, "geometry": { "type": "Point", "coordinates": [ 79.1554011, 12.9310563 ] } },
{ "type": "Feature", "properties": { "element": "node", "id": 6932966222, "name": "Nalam Medical Center and Hospital", "amenity": "hospital", "healthcare": "hospital", "operator": null }, "geometry": { "type": "Point", "coordinates": [ 79.1536966, 12.9346861 ] } },
{ "type": "Feature", "properties": { "element": "node", "id": 6933038551, "name": "Indira Nursing Home, Vellore", "amenity": "clinic", "healthcare": "clinic", "operator": null }, "geometry": { "type": "Point", "coordinates": [ 79.1401702, 12.924509 ] } },
{ "type": "Feature", "properties": { "element": "node", "id": 6933824568, "name": "Vasan Eye Care Hospital, Vellore", "amenity": "hospital", "healthcare": "hospital", "operator": null }, "geometry": { "type": "Point", "coordinates": [ 79.1316354, 12.9088334 ] } },
{ "type": "Feature", "properties": { "element": "node", "id": 6936339727, "name": "Raj Nursing Home, Vellore", "amenity": "clinic", "healthcare": "clinic", "operator": null }, "geometry": { "type": "Point", "coordinates": [ 79.1362837, 12.8957453 ] } },
{ "type": "Feature", "properties": { "element": "node", "id": 6936359946, "name": "Lakshmi Hospital, Vellore", "amenity": "hospital", "healthcare": null, "operator": null }, "geometry": { "type": "Point", "coordinates": [ 79.1369931, 12.9684926 ] } },
{ "type": "Feature", "properties": { "element": "node", "id": 6936359962, "name": "Kumaran Hospital, Vellore", "amenity": "hospital", "healthcare": "hospital", "operator": null }, "geometry": { "type": "Point", "coordinates": [ 79.1373874, 12.9459476 ] } },
{ "type": "Feature", "properties": { "element": "node", "id": 6936684357, "name": "The Schieffelin Institute Of Health Research & Training Centre, Karigiri", "amenity": "hospital", "healthcare": null, "operator": null }, "geometry": { "type": "Point", "coordinates": [ 79.1969506, 12.9938366 ] } },
{ "type": "Feature", "properties": { "element": "node", "id": 6936709044, "name": "Dr Sivakumar Multi Speciality Hospital, Vellore", "amenity": "hospital", "healthcare": "hospital", "operator": null }, "geometry": { "type": "Point", "coordinates": [ 79.152562, 12.9343057 ] } },
{ "type": "Feature", "properties": { "element": "node", "id": 6936709066, "name": "Popular Eye Clinic", "amenity": "clinic", "healthcare": "clinic", "operator": null }, "geometry": { "type": "Point", "coordinates": [ 79.1353758, 12.9162622 ] } },
{ "type": "Feature", "properties": { "element": "node", "id": 6936770777, "name": "Sandhya Hospital", "amenity": "hospital", "healthcare": "hospital", "operator": null }, "geometry": { "type": "Point", "coordinates": [ 79.1684776, 12.9382969 ] } },
{ "type": "Feature", "properties": { "element": "node", "id": 6937498370, "name": "Dr. Agarwal`S Eye Hospital Ltd", "amenity": "hospital", "healthcare": "hospital", "operator": null }, "geometry": { "type": "Point", "coordinates": [ 79.131622, 12.9106975 ] } },
{ "type": "Feature", "properties": { "element": "node", "id": 7068645385, "name": null, "amenity": "school", "healthcare": null, "operator": null }, "geometry": { "type": "Point", "coordinates": [ 79.1326554, 12.9125708 ] } },
{ "type": "Feature", "properties": { "element": "node", "id": 7068651885, "name": null, "amenity": "college", "healthcare": null, "operator": null }, "geometry": { "type": "Point", "coordinates": [ 79.1324229, 12.9110998 ] } },
{ "type": "Feature", "properties": { "element": "node", "id": 7126156085, "name": null, "amenity": "college", "healthcare": null, "operator": null }, "geometry": { "type": "Point", "coordinates": [ 78.890164, 12.9519385 ] } },
{ "type": "Feature", "properties": { "element": "node", "id": 7135170985, "name": null, "amenity": "school", "healthcare": null, "operator": null }, "geometry": { "type": "Point", "coordinates": [ 79.2176101, 12.9696542 ] } },
{ "type": "Feature", "properties": { "element": "node", "id": 7139252385, "name": null, "amenity": "school", "healthcare": null, "operator": null }, "geometry": { "type": "Point", "coordinates": [ 79.1810607, 12.9678849 ] } },
{ "type": "Feature", "properties": { "element": "node", "id": 7174050686, "name": null, "amenity": "school", "healthcare": null, "operator": null }, "geometry": { "type": "Point", "coordinates": [ 78.9093048, 12.9555889 ] } },
{ "type": "Feature", "properties": { "element": "node", "id": 7174060485, "name": null, "amenity": "school", "healthcare": null, "operator": null }, "geometry": { "type": "Point", "coordinates": [ 78.9542934, 12.9586379 ] } },
{ "type": "Feature", "properties": { "element": "node", "id": 7174116285, "name": null, "amenity": "college", "healthcare": null, "operator": null }, "geometry": { "type": "Point", "coordinates": [ 78.8863551, 12.9521777 ] } },
{ "type": "Feature", "properties": { "element": "node", "id": 7174146385, "name": null, "amenity": "school", "healthcare": null, "operator": null }, "geometry": { "type": "Point", "coordinates": [ 78.8751919, 12.9481687 ] } },
{ "type": "Feature", "properties": { "element": "node", "id": 7174210785, "name": null, "amenity": "hospital", "healthcare": "hospital", "operator": null }, "geometry": { "type": "Point", "coordinates": [ 78.8695276, 12.9450447 ] } },
{ "type": "Feature", "properties": { "element": "node", "id": 7174299685, "name": null, "amenity": "school", "healthcare": null, "operator": null }, "geometry": { "type": "Point", "coordinates": [ 78.9008041, 12.9418266 ] } },
{ "type": "Feature", "properties": { "element": "node", "id": 7181669848, "name": "Sankari Hospital", "amenity": "hospital", "healthcare": "hospital", "operator": null }, "geometry": { "type": "Point", "coordinates": [ 79.1335011, 12.9153529 ] } },
{ "type": "Feature", "properties": { "element": "node", "id": 7200398285, "name": null, "amenity": "hospital", "healthcare": "hospital", "operator": null }, "geometry": { "type": "Point", "coordinates": [ 79.1349428, 12.9137954 ] } },
{ "type": "Feature", "properties": { "element": "node", "id": 7252333326, "name": "Paratharami Government Hospital", "amenity": "hospital", "healthcare": null, "operator": null }, "geometry": { "type": "Point", "coordinates": [ 78.9720516, 13.062703 ] } },
{ "type": "Feature", "properties": { "element": "node", "id": 7257289024, "name": "Poigai Government Hospital", "amenity": "hospital", "healthcare": null, "operator": null }, "geometry": { "type": "Point", "coordinates": [ 79.0567052, 12.9153169 ] } },
{ "type": "Feature", "properties": { "element": "node", "id": 7257289036, "name": "Varshini Hospital, Vellore", "amenity": "hospital", "healthcare": "hospital", "operator": null }, "geometry": { "type": "Point", "coordinates": [ 79.1355217, 12.9059984 ] } },
{ "type": "Feature", "properties": { "element": "node", "id": 7257289043, "name": "Arun Hospital", "amenity": "hospital", "healthcare": "hospital", "operator": null }, "geometry": { "type": "Point", "coordinates": [ 79.1334705, 12.9030309 ] } },
{ "type": "Feature", "properties": { "element": "node", "id": 7257289044, "name": "Pasumathur Government Hospital", "amenity": "hospital", "healthcare": null, "operator": null }, "geometry": { "type": "Point", "coordinates": [ 78.9425135, 12.9314139 ] } },
{ "type": "Feature", "properties": { "element": "node", "id": 7257289049, "name": "Government Pentland Hospital", "amenity": "hospital", "healthcare": "hospital", "operator": null }, "geometry": { "type": "Point", "coordinates": [ 79.1346498, 12.9156633 ] } },
{ "type": "Feature", "properties": { "element": "node", "id": 7257289055, "name": "Mummy Hospital, Vellore", "amenity": "hospital", "healthcare": "hospital", "operator": null }, "geometry": { "type": "Point", "coordinates": [ 79.131432, 12.91051 ] } },
{ "type": "Feature", "properties": { "element": "node", "id": 7257289063, "name": "Vellore Medical College And Hospital", "amenity": "hospital", "healthcare": "hospital", "operator": null }, "geometry": { "type": "Point", "coordinates": [ 79.1366903, 12.8441327 ] } },
{ "type": "Feature", "properties": { "element": "node", "id": 7257289077, "name": "Dinesh Hospital, Vellore", "amenity": "hospital", "healthcare": null, "operator": null }, "geometry": { "type": "Point", "coordinates": [ 79.133123, 12.872987 ] } },
{ "type": "Feature", "properties": { "element": "node", "id": 7257289119, "name": "JC Nursing Home, Vellore", "amenity": "clinic", "healthcare": "clinic", "operator": null }, "geometry": { "type": "Point", "coordinates": [ 79.133873, 12.91395 ] } },
{ "type": "Feature", "properties": { "element": "node", "id": 7257289125, "name": "Sri Narayani Hospital & Research Centre, Ariyur", "amenity": "hospital", "healthcare": "hospital", "operator": null }, "geometry": { "type": "Point", "coordinates": [ 79.0900539, 12.8704789 ] } },
{ "type": "Feature", "properties": { "element": "node", "id": 7257289127, "name": "Dr. Santhakumari Hospital", "amenity": "hospital", "healthcare": "hospital", "operator": null }, "geometry": { "type": "Point", "coordinates": [ 79.1255813, 12.908625 ] } },
{ "type": "Feature", "properties": { "element": "node", "id": 7257421526, "name": "Gopalakrishna Hospital, Gudiyatham", "amenity": "hospital", "healthcare": "hospital", "operator": null }, "geometry": { "type": "Point", "coordinates": [ 78.8685493, 12.9453972 ] } },
{ "type": "Feature", "properties": { "element": "node", "id": 7257421534, "name": "Government Hospital Kangkuppam", "amenity": "hospital", "healthcare": null, "operator": null }, "geometry": { "type": "Point", "coordinates": [ 78.9656826, 12.9893488 ] } },
{ "type": "Feature", "properties": { "element": "node", "id": 7257421535, "name": "Government Hospital, Vaduganthangal", "amenity": "hospital", "healthcare": null, "operator": null }, "geometry": { "type": "Point", "coordinates": [ 79.015876, 12.96365 ] } },
{ "type": "Feature", "properties": { "element": "node", "id": 7257421542, "name": "Baba Hospital, Sathuvachari", "amenity": "hospital", "healthcare": "hospital", "operator": null }, "geometry": { "type": "Point", "coordinates": [ 79.158739, 12.93425 ] } },
{ "type": "Feature", "properties": { "element": "node", "id": 7257421567, "name": "Ruhsa, Kavanur", "amenity": "hospital", "healthcare": null, "operator": null }, "geometry": { "type": "Point", "coordinates": [ 78.971831, 12.95111 ] } },
{ "type": "Feature", "properties": { "element": "node", "id": 7257421568, "name": "Sarada Multispeciality Hospital", "amenity": "hospital", "healthcare": "hospital", "operator": null }, "geometry": { "type": "Point", "coordinates": [ 79.156815, 12.93239 ] } },
{ "type": "Feature", "properties": { "element": "node", "id": 7257421577, "name": "B G Lakshmi Clinic, Gudiyatham", "amenity": "clinic", "healthcare": "clinic", "operator": null }, "geometry": { "type": "Point", "coordinates": [ 78.8693794, 12.9437987 ] } },
{ "type": "Feature", "properties": { "element": "node", "id": 7257421579, "name": "Government Hospital K.V.Kuppam", "amenity": "hospital", "healthcare": null, "operator": null }, "geometry": { "type": "Point", "coordinates": [ 78.987091, 12.9622 ] } },
{ "type": "Feature", "properties": { "element": "node", "id": 7257421598, "name": "Sakthi Amma Hospital, Vellore", "amenity": "hospital", "healthcare": "hospital", "operator": null }, "geometry": { "type": "Point", "coordinates": [ 79.1643137, 12.936069 ] } },
{ "type": "Feature", "properties": { "element": "node", "id": 7257421605, "name": "Pernampattu Government Hospital", "amenity": "hospital", "healthcare": null, "operator": null }, "geometry": { "type": "Point", "coordinates": [ 78.7166738, 12.9323821 ] } },
{ "type": "Feature", "properties": { "element": "node", "id": 7257421609, "name": "Serkadu Government Hospital", "amenity": "hospital", "healthcare": null, "operator": null }, "geometry": { "type": "Point", "coordinates": [ 79.2173929, 13.0147452 ] } },
{ "type": "Feature", "properties": { "element": "node", "id": 7257421612, "name": "Swamy Hospital", "amenity": "hospital", "healthcare": "hospital", "operator": null }, "geometry": { "type": "Point", "coordinates": [ 78.8696553, 12.9433459 ] } },
{ "type": "Feature", "properties": { "element": "node", "id": 7296369781, "name": "Baqiyat Salihat Arabic College", "amenity": "college", "healthcare": null, "operator": null }, "geometry": { "type": "Point", "coordinates": [ 79.1355204, 12.9193923 ] } },
{ "type": "Feature", "properties": { "element": "node", "id": 7526648954, "name": "Don Bosco School", "amenity": "school", "healthcare": null, "operator": null }, "geometry": { "type": "Point", "coordinates": [ 79.1417296, 12.9543703 ] } },
{ "type": "Feature", "properties": { "element": "node", "id": 7825122233, "name": "Kalai Siddha Clinic", "amenity": "clinic", "healthcare": "clinic", "operator": null }, "geometry": { "type": "Point", "coordinates": [ 79.1355807, 12.901862 ] } },
{ "type": "Feature", "properties": { "element": "node", "id": 7825122234, "name": "Dr. Dhanalakshmi ENT Clinic", "amenity": "clinic", "healthcare": "clinic", "operator": null }, "geometry": { "type": "Point", "coordinates": [ 79.1271164, 12.8951943 ] } },
{ "type": "Feature", "properties": { "element": "node", "id": 7825122236, "name": "Rasi Skin Cosmetic & Laser Clinic", "amenity": "clinic", "healthcare": "clinic", "operator": null }, "geometry": { "type": "Point", "coordinates": [ 79.15677, 12.9346048 ] } },
{ "type": "Feature", "properties": { "element": "node", "id": 7825122237, "name": "Dr. E Sivakumar ENT Clinic", "amenity": "clinic", "healthcare": "clinic", "operator": null }, "geometry": { "type": "Point", "coordinates": [ 79.131297, 12.901677 ] } },
{ "type": "Feature", "properties": { "element": "node", "id": 7825122238, "name": "Herbocare Hospital", "amenity": "hospital", "healthcare": "hospital", "operator": null }, "geometry": { "type": "Point", "coordinates": [ 79.1386445, 12.9597861 ] } },
{ "type": "Feature", "properties": { "element": "node", "id": 7825122240, "name": "Ramachandra Hospital", "amenity": "hospital", "healthcare": "hospital", "operator": null }, "geometry": { "type": "Point", "coordinates": [ 79.1357186, 12.8936736 ] } },
{ "type": "Feature", "properties": { "element": "node", "id": 7825122241, "name": "Dr. Deepa Clinic", "amenity": "clinic", "healthcare": "clinic", "operator": null }, "geometry": { "type": "Point", "coordinates": [ 79.144871, 12.9520393 ] } },
{ "type": "Feature", "properties": { "element": "node", "id": 7825122242, "name": "Susi Clinic", "amenity": "clinic", "healthcare": "clinic", "operator": null }, "geometry": { "type": "Point", "coordinates": [ 79.135233, 12.889212 ] } },
{ "type": "Feature", "properties": { "element": "node", "id": 7825122243, "name": "Dr. Thiyagarajan", "amenity": "doctors", "healthcare": "doctor", "operator": null }, "geometry": { "type": "Point", "coordinates": [ 79.1337795, 12.9027943 ] } },
{ "type": "Feature", "properties": { "element": "node", "id": 7825122244, "name": "Dr. Gowri's Childrens Clinic", "amenity": "clinic", "healthcare": "clinic", "operator": null }, "geometry": { "type": "Point", "coordinates": [ 79.1388363, 12.9590135 ] } },
{ "type": "Feature", "properties": { "element": "node", "id": 7825122245, "name": "Swasam Naturecure and Yoga Hospital", "amenity": "hospital", "healthcare": "hospital", "operator": null }, "geometry": { "type": "Point", "coordinates": [ 79.1418751, 12.9566197 ] } },
{ "type": "Feature", "properties": { "element": "node", "id": 7825122246, "name": "S.K. Nambi Hospital", "amenity": "hospital", "healthcare": "hospital", "operator": null }, "geometry": { "type": "Point", "coordinates": [ 79.1352986, 12.905718 ] } },
{ "type": "Feature", "properties": { "element": "node", "id": 7825122247, "name": "Sanjeevan Ayurveda Clinic", "amenity": "clinic", "healthcare": "clinic", "operator": null }, "geometry": { "type": "Point", "coordinates": [ 79.1736207, 12.9399676 ] } },
{ "type": "Feature", "properties": { "element": "node", "id": 7825122249, "name": "Vellore Hospital", "amenity": "hospital", "healthcare": "hospital", "operator": null }, "geometry": { "type": "Point", "coordinates": [ 79.1316299, 12.9016809 ] } },
{ "type": "Feature", "properties": { "element": "node", "id": 7825122250, "name": "Church Hospital", "amenity": "hospital", "healthcare": "hospital", "operator": null }, "geometry": { "type": "Point", "coordinates": [ 79.1251947, 12.9082477 ] } },
{ "type": "Feature", "properties": { "element": "node", "id": 7825122251, "name": "Shivam Hospital", "amenity": "hospital", "healthcare": "hospital", "operator": null }, "geometry": { "type": "Point", "coordinates": [ 79.144835, 12.9522294 ] } },
{ "type": "Feature", "properties": { "element": "node", "id": 7825122252, "name": "Aarogya Clinic Multi Speciality Centre", "amenity": "clinic", "healthcare": "clinic", "operator": null }, "geometry": { "type": "Point", "coordinates": [ 79.132777, 12.898644 ] } },
{ "type": "Feature", "properties": { "element": "node", "id": 7825122254, "name": "Dr. Sandhya's Clinic", "amenity": "clinic", "healthcare": "clinic", "operator": null }, "geometry": { "type": "Point", "coordinates": [ 79.1658121, 12.9417847 ] } },
{ "type": "Feature", "properties": { "element": "node", "id": 7825122255, "name": "G P Hospital", "amenity": "hospital", "healthcare": "hospital", "operator": null }, "geometry": { "type": "Point", "coordinates": [ 79.1352036, 12.9154281 ] } },
{ "type": "Feature", "properties": { "element": "node", "id": 7825122256, "name": "Kurinji Hospital", "amenity": "hospital", "healthcare": "hospital", "operator": null }, "geometry": { "type": "Point", "coordinates": [ 79.1414803, 12.9565077 ] } },
{ "type": "Feature", "properties": { "element": "node", "id": 7825122257, "name": "Best Hospital", "amenity": "hospital", "healthcare": "hospital", "operator": null }, "geometry": { "type": "Point", "coordinates": [ 79.1066157, 12.8773311 ] } },
{ "type": "Feature", "properties": { "element": "node", "id": 7825122258, "name": "Arulalan Clinic", "amenity": "clinic", "healthcare": "clinic", "operator": null }, "geometry": { "type": "Point", "coordinates": [ 79.1716334, 12.9394923 ] } },
{ "type": "Feature", "properties": { "element": "node", "id": 7825122260, "name": "Parul Clinic", "amenity": "clinic", "healthcare": "clinic", "operator": null }, "geometry": { "type": "Point", "coordinates": [ 79.13573, 12.888341 ] } },
{ "type": "Feature", "properties": { "element": "node", "id": 7825122261, "name": "Usha Nursing Home", "amenity": "clinic", "healthcare": "clinic", "operator": null }, "geometry": { "type": "Point", "coordinates": [ 79.1366865, 12.9165884 ] } },
{ "type": "Feature", "properties": { "element": "node", "id": 7825122262, "name": "Dr. Venkateswara Rao Hospital", "amenity": "hospital", "healthcare": "hospital", "operator": null }, "geometry": { "type": "Point", "coordinates": [ 79.1342217, 12.9163413 ] } },
{ "type": "Feature", "properties": { "element": "node", "id": 7825122263, "name": "Akshaya General and Dental Hospital", "amenity": "hospital", "healthcare": "hospital", "operator": null }, "geometry": { "type": "Point", "coordinates": [ 79.136876, 12.9577933 ] } },
{ "type": "Feature", "properties": { "element": "node", "id": 7825122264, "name": "Arul Jothi Nursing Home", "amenity": "clinic", "healthcare": "clinic", "operator": null }, "geometry": { "type": "Point", "coordinates": [ 79.1351609, 12.8926807 ] } },
{ "type": "Feature", "properties": { "element": "node", "id": 7825122265, "name": "K K R Hospital", "amenity": "hospital", "healthcare": "hospital", "operator": null }, "geometry": { "type": "Point", "coordinates": [ 79.135956, 12.904517 ] } },
{ "type": "Feature", "properties": { "element": "node", "id": 7825122267, "name": "C.M Dental Clinic and Hospital", "amenity": "hospital", "healthcare": "hospital", "operator": null }, "geometry": { "type": "Point", "coordinates": [ 79.1125805, 12.9218545 ] } },
{ "type": "Feature", "properties": { "element": "node", "id": 7825122268, "name": "Sterling Diabetes Hospital", "amenity": "hospital", "healthcare": "hospital", "operator": null }, "geometry": { "type": "Point", "coordinates": [ 79.1432088, 12.9578429 ] } },
{ "type": "Feature", "properties": { "element": "node", "id": 7825122269, "name": "Sreenivasa ENT Clinic", "amenity": "clinic", "healthcare": "clinic", "operator": null }, "geometry": { "type": "Point", "coordinates": [ 79.1368111, 12.9502466 ] } },
{ "type": "Feature", "properties": { "element": "node", "id": 7825122270, "name": "Storke Hospital", "amenity": "hospital", "healthcare": "hospital", "operator": null }, "geometry": { "type": "Point", "coordinates": [ 79.1344238, 12.8898385 ] } },
{ "type": "Feature", "properties": { "element": "node", "id": 7825122271, "name": "Cure Multispeciality Hospital", "amenity": "hospital", "healthcare": "hospital", "operator": null }, "geometry": { "type": "Point", "coordinates": [ 79.1333437, 12.909147 ] } },
{ "type": "Feature", "properties": { "element": "node", "id": 7825122272, "name": "Dr. K.P. Arjunan Clinic", "amenity": "clinic", "healthcare": "clinic", "operator": null }, "geometry": { "type": "Point", "coordinates": [ 79.1579666, 12.9338287 ] } },
{ "type": "Feature", "properties": { "element": "node", "id": 7825122273, "name": "Grace Skin Clinic", "amenity": "clinic", "healthcare": "clinic", "operator": null }, "geometry": { "type": "Point", "coordinates": [ 79.1353133, 12.8837199 ] } },
{ "type": "Feature", "properties": { "element": "node", "id": 7825122275, "name": "Saisugam Siddha & Ayurvedha Clinic", "amenity": "clinic", "healthcare": "clinic", "operator": null }, "geometry": { "type": "Point", "coordinates": [ 79.1387112, 12.9504065 ] } },
{ "type": "Feature", "properties": { "element": "node", "id": 7825122276, "name": "Abitha Fertility Clinic", "amenity": "clinic", "healthcare": "clinic", "operator": null }, "geometry": { "type": "Point", "coordinates": [ 79.13197, 12.903342 ] } },
{ "type": "Feature", "properties": { "element": "node", "id": 7825122277, "name": "Dr. Pari's Hospital", "amenity": "hospital", "healthcare": "hospital", "operator": null }, "geometry": { "type": "Point", "coordinates": [ 79.1324839, 12.9030108 ] } },
{ "type": "Feature", "properties": { "element": "node", "id": 7825122278, "name": "Rama Clinic", "amenity": "clinic", "healthcare": "clinic", "operator": null }, "geometry": { "type": "Point", "coordinates": [ 79.1400263, 12.9527599 ] } },
{ "type": "Feature", "properties": { "element": "node", "id": 7825122279, "name": "Dr. Mohan's Diabetes Specialities Centre", "amenity": "clinic", "healthcare": "clinic", "operator": null }, "geometry": { "type": "Point", "coordinates": [ 79.141955, 12.9571623 ] } },
{ "type": "Feature", "properties": { "element": "node", "id": 7825122280, "name": "Dr. Ashok Clinic", "amenity": "clinic", "healthcare": "clinic", "operator": null }, "geometry": { "type": "Point", "coordinates": [ 79.139021, 12.9586875 ] } },
{ "type": "Feature", "properties": { "element": "node", "id": 7825122281, "name": "Gowtham Clinic Child Care", "amenity": "clinic", "healthcare": "clinic", "operator": null }, "geometry": { "type": "Point", "coordinates": [ 79.1266602, 12.8942521 ] } },
{ "type": "Feature", "properties": { "element": "node", "id": 7825122282, "name": "Fathima Hospital", "amenity": "hospital", "healthcare": "hospital", "operator": null }, "geometry": { "type": "Point", "coordinates": [ 79.138924, 12.9170061 ] } },
{ "type": "Feature", "properties": { "element": "node", "id": 7825122283, "name": "Vellore Speciality Centre", "amenity": "clinic", "healthcare": "clinic", "operator": null }, "geometry": { "type": "Point", "coordinates": [ 79.133473, 12.926369 ] } },
{ "type": "Feature", "properties": { "element": "node", "id": 7825122284, "name": "Dr. Imran's Al-Afiya Clinic", "amenity": "clinic", "healthcare": "clinic", "operator": null }, "geometry": { "type": "Point", "coordinates": [ 79.1268956, 12.9005046 ] } },
{ "type": "Feature", "properties": { "element": "node", "id": 7825122285, "name": "Guru Clinic", "amenity": "clinic", "healthcare": "clinic", "operator": null }, "geometry": { "type": "Point", "coordinates": [ 79.1356261, 12.9059584 ] } },
{ "type": "Feature", "properties": { "element": "node", "id": 7825122286, "name": "Dhinesh Hospitals", "amenity": "hospital", "healthcare": "hospital", "operator": null }, "geometry": { "type": "Point", "coordinates": [ 79.133113, 12.9086238 ] } },
{ "type": "Feature", "properties": { "element": "node", "id": 7825122287, "name": "VB Hospital", "amenity": "hospital", "healthcare": "hospital", "operator": null }, "geometry": { "type": "Point", "coordinates": [ 79.156067, 12.935049 ] } },
{ "type": "Feature", "properties": { "element": "node", "id": 7825122288, "name": "Nirmal Eye Hospital", "amenity": "hospital", "healthcare": "hospital", "operator": null }, "geometry": { "type": "Point", "coordinates": [ 79.134335, 12.9148799 ] } },
{ "type": "Feature", "properties": { "element": "node", "id": 7825122289, "name": "Kavin's Skin Clinic", "amenity": "clinic", "healthcare": "clinic", "operator": null }, "geometry": { "type": "Point", "coordinates": [ 79.1298127, 12.9000045 ] } },
{ "type": "Feature", "properties": { "element": "node", "id": 7825122290, "name": "Gita Mathai Hospital", "amenity": "hospital", "healthcare": "hospital", "operator": null }, "geometry": { "type": "Point", "coordinates": [ 79.1400221, 12.9159232 ] } },
{ "type": "Feature", "properties": { "element": "node", "id": 7825122291, "name": "Aravind Heart Centre", "amenity": "clinic", "healthcare": "clinic", "operator": null }, "geometry": { "type": "Point", "coordinates": [ 79.1648202, 12.9366802 ] } },
{ "type": "Feature", "properties": { "element": "node", "id": 7825122292, "name": "Jayanthi Hospital", "amenity": "hospital", "healthcare": "hospital", "operator": null }, "geometry": { "type": "Point", "coordinates": [ 79.1671117, 12.9362461 ] } },
{ "type": "Feature", "properties": { "element": "node", "id": 7825122293, "name": "Sri Ragav Neuro Clinic", "amenity": "clinic", "healthcare": "clinic", "operator": null }, "geometry": { "type": "Point", "coordinates": [ 79.1340561, 12.9152754 ] } },
{ "type": "Feature", "properties": { "element": "node", "id": 7825122294, "name": "Christian Medical College Schell Eye Hospital", "amenity": "hospital", "healthcare": "hospital", "operator": "Christian Medical College" }, "geometry": { "type": "Point", "coordinates": [ 79.1334476, 12.9130671 ] } },
{ "type": "Feature", "properties": { "element": "node", "id": 7825122295, "name": "DSF Hospital", "amenity": "hospital", "healthcare": "hospital", "operator": null }, "geometry": { "type": "Point", "coordinates": [ 79.1626536, 12.9366943 ] } },
{ "type": "Feature", "properties": { "element": "node", "id": 7825122297, "name": "Vignesh Urology Clinic", "amenity": "clinic", "healthcare": "clinic", "operator": null }, "geometry": { "type": "Point", "coordinates": [ 79.1336849, 12.9153215 ] } },
{ "type": "Feature", "properties": { "element": "node", "id": 7825122298, "name": "Jansi Hospital", "amenity": "hospital", "healthcare": "hospital", "operator": null }, "geometry": { "type": "Point", "coordinates": [ 79.1127269, 12.9218139 ] } },
{ "type": "Feature", "properties": { "element": "node", "id": 7825122300, "name": "Mm Clinic", "amenity": "clinic", "healthcare": "clinic", "operator": null }, "geometry": { "type": "Point", "coordinates": [ 79.1229312, 12.9027903 ] } },
{ "type": "Feature", "properties": { "element": "node", "id": 7825122301, "name": "Mother's Care Diabetes Centre", "amenity": "clinic", "healthcare": "clinic", "operator": null }, "geometry": { "type": "Point", "coordinates": [ 79.161111, 12.936481 ] } },
{ "type": "Feature", "properties": { "element": "node", "id": 7825122302, "name": "Dr. Anusha", "amenity": "doctors", "healthcare": "doctor", "operator": null }, "geometry": { "type": "Point", "coordinates": [ 79.1457674, 12.9542369 ] } },
{ "type": "Feature", "properties": { "element": "node", "id": 7825122303, "name": "Malar Clinic", "amenity": "clinic", "healthcare": "clinic", "operator": null }, "geometry": { "type": "Point", "coordinates": [ 79.1391983, 12.9094519 ] } },
{ "type": "Feature", "properties": { "element": "node", "id": 7825122304, "name": "Satish Eye Hospital", "amenity": "hospital", "healthcare": "hospital", "operator": null }, "geometry": { "type": "Point", "coordinates": [ 79.1332837, 12.9106339 ] } },
{ "type": "Feature", "properties": { "element": "node", "id": 7825122305, "name": "Lakshmi Hospital", "amenity": "hospital", "healthcare": "hospital", "operator": null }, "geometry": { "type": "Point", "coordinates": [ 79.1271585, 12.9002559 ] } },
{ "type": "Feature", "properties": { "element": "node", "id": 7825122306, "name": "Aruna Eye Hospital", "amenity": "hospital", "healthcare": "hospital", "operator": null }, "geometry": { "type": "Point", "coordinates": [ 79.1317331, 12.9112511 ] } },
{ "type": "Feature", "properties": { "element": "node", "id": 7825122307, "name": "Shree Sai Heart Centre", "amenity": "clinic", "healthcare": "clinic", "operator": null }, "geometry": { "type": "Point", "coordinates": [ 79.1439111, 12.9532734 ] } },
{ "type": "Feature", "properties": { "element": "node", "id": 7825122308, "name": "Dr. Vajjiravelu's Clinic", "amenity": "clinic", "healthcare": "clinic", "operator": null }, "geometry": { "type": "Point", "coordinates": [ 79.1393886, 12.9509089 ] } },
{ "type": "Feature", "properties": { "element": "node", "id": 7825122309, "name": "AA Child Care Centre", "amenity": "clinic", "healthcare": "clinic", "operator": null }, "geometry": { "type": "Point", "coordinates": [ 79.138843, 12.953283 ] } },
{ "type": "Feature", "properties": { "element": "node", "id": 7825122310, "name": "Jeevan Siddha Clinic", "amenity": "clinic", "healthcare": "clinic", "operator": null }, "geometry": { "type": "Point", "coordinates": [ 79.1363179, 12.9273097 ] } },
{ "type": "Feature", "properties": { "element": "node", "id": 7825122311, "name": "JJ Ravi Hospital", "amenity": "hospital", "healthcare": "hospital", "operator": null }, "geometry": { "type": "Point", "coordinates": [ 79.1354165, 12.8923296 ] } },
{ "type": "Feature", "properties": { "element": "node", "id": 7825122312, "name": "Balaji Hospital", "amenity": "hospital", "healthcare": "hospital", "operator": null }, "geometry": { "type": "Point", "coordinates": [ 79.085893, 12.8716238 ] } },
{ "type": "Feature", "properties": { "element": "node", "id": 7825122313, "name": "Jothi Hospital", "amenity": "hospital", "healthcare": "hospital", "operator": null }, "geometry": { "type": "Point", "coordinates": [ 79.1359967, 12.9031171 ] } },
{ "type": "Feature", "properties": { "element": "node", "id": 7825122314, "name": "Ramana Cardiac & Diabetes Centre", "amenity": "clinic", "healthcare": "clinic", "operator": null }, "geometry": { "type": "Point", "coordinates": [ 79.1260559, 12.9061025 ] } },
{ "type": "Feature", "properties": { "element": "node", "id": 7825122315, "name": "Siddhavanam Health Care", "amenity": "clinic", "healthcare": "clinic", "operator": null }, "geometry": { "type": "Point", "coordinates": [ 79.1081674, 12.922758 ] } },
{ "type": "Feature", "properties": { "element": "node", "id": 7825122316, "name": "J. Supriya Clinic", "amenity": "clinic", "healthcare": "clinic", "operator": null }, "geometry": { "type": "Point", "coordinates": [ 79.1358799, 12.9057921 ] } },
{ "type": "Feature", "properties": { "element": "node", "id": 7825122317, "name": "Naruvi Hospitals", "amenity": "hospital", "healthcare": "hospital", "operator": null }, "geometry": { "type": "Point", "coordinates": [ 79.1413316, 12.9341391 ] } },
{ "type": "Feature", "properties": { "element": "node", "id": 7825122318, "name": "Anush Clinic", "amenity": "clinic", "healthcare": "clinic", "operator": null }, "geometry": { "type": "Point", "coordinates": [ 79.1438956, 12.9521876 ] } },
{ "type": "Feature", "properties": { "element": "node", "id": 7825122319, "name": "Premji Neuro Hospital", "amenity": "hospital", "healthcare": "hospital", "operator": null }, "geometry": { "type": "Point", "coordinates": [ 79.118794, 12.876936 ] } },
{ "type": "Feature", "properties": { "element": "node", "id": 7825122321, "name": "Suraksha Healthcare Clinic", "amenity": "clinic", "healthcare": "clinic", "operator": null }, "geometry": { "type": "Point", "coordinates": [ 79.140908, 12.9583015 ] } },
{ "type": "Feature", "properties": { "element": "node", "id": 7825122322, "name": "Annamalai Hospital", "amenity": "hospital", "healthcare": "hospital", "operator": null }, "geometry": { "type": "Point", "coordinates": [ 79.137064, 12.9060705 ] } },
{ "type": "Feature", "properties": { "element": "node", "id": 7825122323, "name": "BPR Hospital", "amenity": "hospital", "healthcare": "hospital", "operator": null }, "geometry": { "type": "Point", "coordinates": [ 79.1363165, 12.916289 ] } },
{ "type": "Feature", "properties": { "element": "node", "id": 10614164007, "name": "Eashwar ENT Clinic", "amenity": "clinic", "healthcare": "clinic", "operator": null }, "geometry": { "type": "Point", "coordinates": [ 78.8692536, 12.9450044 ] } },
{ "type": "Feature", "properties": { "element": "node", "id": 10735185863, "name": "Nathan dental clinic", "amenity": "hospital", "healthcare": "hospital", "operator": "Dr.V.N.Narendran" }, "geometry": { "type": "Point", "coordinates": [ 79.1352002, 12.9546956 ] } },
{ "type": "Feature", "properties": { "element": "node", "id": 10833430839, "name": "Holy Cross Matric Higher Secondary School", "amenity": "school", "healthcare": null, "operator": null }, "geometry": { "type": "Point", "coordinates": [ 79.1632196, 12.9383124 ] } },
{ "type": "Feature", "properties": { "element": "node", "id": 10833430957, "name": null, "amenity": "police", "healthcare": null, "operator": null }, "geometry": { "type": "Point", "coordinates": [ 79.1733108, 12.9407315 ] } },
{ "type": "Feature", "properties": { "element": "node", "id": 10858743984, "name": "Christian Medical College", "amenity": "university", "healthcare": null, "operator": null }, "geometry": { "type": "Point", "coordinates": [ 79.1305932, 12.879059 ] } },
{ "type": "Feature", "properties": { "element": "node", "id": 10859686771, "name": "Lakshmi Garden", "amenity": "school", "healthcare": null, "operator": null }, "geometry": { "type": "Point", "coordinates": [ 79.1305922, 12.9023841 ] } },
{ "type": "Feature", "properties": { "element": "node", "id": 10980515239, "name": "Saint Joseph Industial Training Institute", "amenity": "school", "healthcare": null, "operator": null }, "geometry": { "type": "Point", "coordinates": [ 79.1362676, 12.9642114 ] } },
{ "type": "Feature", "properties": { "element": "node", "id": 12416648131, "name": "Govt Arts College Muthurangam", "amenity": "college", "healthcare": null, "operator": null }, "geometry": { "type": "Point", "coordinates": [ 79.1387479, 12.8853402 ] } },
{ "type": "Feature", "properties": { "element": "node", "id": 14067828491, "name": "Ida Sophia Scudder Urban Health Centre", "amenity": "hospital", "healthcare": "hospital", "operator": null }, "geometry": { "type": "Point", "coordinates": [ 79.133432, 12.9124616 ] } },
{ "type": "Feature", "properties": { "element": "relation", "id": 15015178, "name": "Thiruvalluvar University", "amenity": "university", "healthcare": null, "operator": null }, "geometry": { "type": "MultiPolygon", "coordinates": [ [ [ [ 79.2093538, 13.0268054 ], [ 79.2093947, 13.0269967 ], [ 79.209651, 13.0269542 ], [ 79.2097165, 13.0274218 ], [ 79.2088411, 13.0274006 ], [ 79.208846, 13.0277519 ], [ 79.2090416, 13.0278228 ], [ 79.2092213, 13.0279114 ], [ 79.20931, 13.0280754 ], [ 79.2093282, 13.0283591 ], [ 79.2093214, 13.0285209 ], [ 79.2092372, 13.0286893 ], [ 79.2084502, 13.0297818 ], [ 79.209285, 13.0300477 ], [ 79.209889, 13.0293658 ], [ 79.2109318, 13.0281884 ], [ 79.210411, 13.0274505 ], [ 79.2102608, 13.026646 ], [ 79.2093538, 13.0268054 ] ] ], [ [ [ 79.210959, 13.0310597 ], [ 79.2111328, 13.0301679 ], [ 79.2113284, 13.0303214 ], [ 79.2117168, 13.0297763 ], [ 79.2124013, 13.029726 ], [ 79.2122628, 13.0289241 ], [ 79.21182, 13.0288368 ], [ 79.2117945, 13.0285718 ], [ 79.2113588, 13.0283221 ], [ 79.2102799, 13.0296177 ], [ 79.2102352, 13.0296714 ], [ 79.2101332, 13.0297939 ], [ 79.2093969, 13.0306781 ], [ 79.209128, 13.0310009 ], [ 79.209515, 13.0311423 ], [ 79.2099873, 13.0313147 ], [ 79.2109177, 13.0316545 ], [ 79.210959, 13.0310597 ] ] ] ] } },
{ "type": "Feature", "properties": { "element": "relation", "id": 15818227, "name": null, "amenity": "school", "healthcare": null, "operator": null }, "geometry": { "type": "Polygon", "coordinates": [ [ [ 79.2551345, 12.9924052 ], [ 79.2546979, 12.9925906 ], [ 79.2548053, 12.9929251 ], [ 79.2547621, 12.9929353 ], [ 79.2547791, 12.9929634 ], [ 79.2549293, 12.993571 ], [ 79.2551439, 12.9935527 ], [ 79.2553411, 12.9936978 ], [ 79.2555986, 12.993784 ], [ 79.2556965, 12.9945812 ], [ 79.2562664, 12.9944531 ], [ 79.256048, 12.9933083 ], [ 79.2557574, 12.9921534 ], [ 79.255284, 12.9923415 ], [ 79.2551345, 12.9924052 ] ] ] } },
{ "type": "Feature", "properties": { "element": "relation", "id": 15931944, "name": "Vellore Institute of Technology", "amenity": "university", "healthcare": null, "operator": null }, "geometry": { "type": "MultiPolygon", "coordinates": [ [ [ [ 79.152796, 12.9694364 ], [ 79.1518938, 12.9694997 ], [ 79.1518938, 12.9697775 ], [ 79.1514391, 12.9697881 ], [ 79.1515221, 12.9706848 ], [ 79.1542059, 12.9708095 ], [ 79.15647, 12.9709443 ], [ 79.1568891, 12.9709738 ], [ 79.1569319, 12.9709768 ], [ 79.1572139, 12.9709967 ], [ 79.1576523, 12.9710336 ], [ 79.1590453, 12.9711901 ], [ 79.1599998, 12.9713325 ], [ 79.1614668, 12.9715646 ], [ 79.1625891, 12.9717545 ], [ 79.1638485, 12.9720042 ], [ 79.1649752, 12.9722678 ], [ 79.164978, 12.9722068 ], [ 79.168025, 12.9730406 ], [ 79.1690386, 12.9715809 ], [ 79.1674133, 12.9716515 ], [ 79.1672611, 12.9706682 ], [ 79.1672086, 12.9706638 ], [ 79.1670366, 12.9706671 ], [ 79.1670694, 12.9693546 ], [ 79.1670813, 12.9688791 ], [ 79.1670837, 12.9686085 ], [ 79.1668872, 12.9686031 ], [ 79.1668764, 12.9687579 ], [ 79.1666864, 12.9687678 ], [ 79.1654892, 12.96883 ], [ 79.1654329, 12.9678382 ], [ 79.1651045, 12.9678541 ], [ 79.1651172, 12.9681336 ], [ 79.1647581, 12.9681407 ], [ 79.1647346, 12.9674039 ], [ 79.1645737, 12.9674146 ], [ 79.1644678, 12.9674252 ], [ 79.1644034, 12.9674317 ], [ 79.1643769, 12.9671935 ], [ 79.1643365, 12.9671902 ], [ 79.1642782, 12.9668483 ], [ 79.1639987, 12.9668859 ], [ 79.1639288, 12.9664079 ], [ 79.1637041, 12.9664399 ], [ 79.1639102, 12.9682052 ], [ 79.1632946, 12.9682171 ], [ 79.1631231, 12.9682082 ], [ 79.1631262, 12.9680663 ], [ 79.1624798, 12.9676316 ], [ 79.1623751, 12.9675103 ], [ 79.1622957, 12.967061 ], [ 79.1623432, 12.9667932 ], [ 79.162381, 12.9667147 ], [ 79.1624757, 12.9666755 ], [ 79.1624639, 12.9665894 ], [ 79.1624036, 12.9665505 ], [ 79.1619017, 12.9666776 ], [ 79.1609226, 12.9669627 ], [ 79.1582751, 12.9675961 ], [ 79.1567382, 12.9679855 ], [ 79.156183, 12.9681515 ], [ 79.1557404, 12.9682077 ], [ 79.1548499, 12.9681972 ], [ 79.1546488, 12.9681999 ], [ 79.1546354, 12.9684273 ], [ 79.1546152, 12.9689605 ], [ 79.1542614, 12.969722 ], [ 79.1542462, 12.9703412 ], [ 79.1540564, 12.9703382 ], [ 79.1540831, 12.9697195 ], [ 79.152796, 12.9694364 ] ] ], [ [ [ 79.1565022, 12.9719585 ], [ 79.1566604, 12.9735999 ], [ 79.1567972, 12.9751211 ], [ 79.1568042, 12.9753381 ], [ 79.156816, 12.975704 ], [ 79.1595089, 12.9754217 ], [ 79.1602063, 12.9774604 ], [ 79.1618934, 12.9764541 ], [ 79.1627423, 12.9764107 ], [ 79.1634974, 12.9764425 ], [ 79.1646501, 12.9764856 ], [ 79.1662044, 12.9764552 ], [ 79.1677738, 12.9764468 ], [ 79.1678396, 12.9749501 ], [ 79.1678468, 12.9738988 ], [ 79.1678476, 12.9737772 ], [ 79.1678761, 12.973586 ], [ 79.1679083, 12.9734441 ], [ 79.1679849, 12.9732541 ], [ 79.1650533, 12.9724908 ], [ 79.1646107, 12.9724041 ], [ 79.1641642, 12.9723262 ], [ 79.1630707, 12.9720941 ], [ 79.1619267, 12.9719078 ], [ 79.160707, 12.9717249 ], [ 79.1598319, 12.9716001 ], [ 79.1581646, 12.9713768 ], [ 79.1569451, 12.9712408 ], [ 79.1567858, 12.971223 ], [ 79.1564775, 12.9711887 ], [ 79.1565022, 12.9719585 ] ] ] ] } },
{ "type": "Feature", "properties": { "element": "relation", "id": 15931945, "name": "Shrishti Schools", "amenity": "school", "healthcare": null, "operator": null }, "geometry": { "type": "Polygon", "coordinates": [ [ [ 79.1670837, 12.9686085 ], [ 79.1670813, 12.9688791 ], [ 79.1670694, 12.9693546 ], [ 79.1670366, 12.9706671 ], [ 79.1672086, 12.9706638 ], [ 79.1672611, 12.9706682 ], [ 79.1674133, 12.9716515 ], [ 79.1690386, 12.9715809 ], [ 79.1693458, 12.9713433 ], [ 79.1693538, 12.9704965 ], [ 79.1690163, 12.9705161 ], [ 79.1690041, 12.9698585 ], [ 79.1689699, 12.9690078 ], [ 79.1689919, 12.9687373 ], [ 79.169073, 12.9662332 ], [ 79.168956, 12.9662212 ], [ 79.1689775, 12.9665905 ], [ 79.1685955, 12.9665785 ], [ 79.1678314, 12.9665965 ], [ 79.1676835, 12.9666505 ], [ 79.167665, 12.9670048 ], [ 79.1670472, 12.9670243 ], [ 79.1670982, 12.9674944 ], [ 79.1670874, 12.968188 ], [ 79.1670837, 12.9686085 ] ] ] } },
{ "type": "Feature", "properties": { "element": "way", "id": 120272987, "name": "Christian Medical College Hospital", "amenity": "hospital", "healthcare": "hospital", "operator": null }, "geometry": { "type": "Polygon", "coordinates": [ [ [ 79.1336712, 12.9256431 ], [ 79.1336553, 12.9245331 ], [ 79.1334688, 12.9245349 ], [ 79.1334713, 12.9243734 ], [ 79.1336145, 12.9243765 ], [ 79.1336451, 12.9238205 ], [ 79.1374546, 12.9244054 ], [ 79.1379242, 12.9247699 ], [ 79.1382808, 12.9253125 ], [ 79.1382721, 12.9260585 ], [ 79.1336712, 12.9256431 ] ] ] } },
{ "type": "Feature", "properties": { "element": "way", "id": 370765052, "name": "Health Centre", "amenity": "hospital", "healthcare": "hospital", "operator": "Sri Narayani Hospital and Research Centre (SNHRC)" }, "geometry": { "type": "Polygon", "coordinates": [ [ [ 79.1545194, 12.9693708 ], [ 79.154524, 12.9696407 ], [ 79.1546013, 12.9696395 ], [ 79.1546009, 12.9696128 ], [ 79.1546883, 12.9696114 ], [ 79.154688, 12.9695923 ], [ 79.1547108, 12.969592 ], [ 79.1547094, 12.9695084 ], [ 79.1547733, 12.9695073 ], [ 79.1547709, 12.9693667 ], [ 79.1545194, 12.9693708 ] ] ] } },
{ "type": "Feature", "properties": { "element": "way", "id": 399636941, "name": "Vallalar School", "amenity": "school", "healthcare": null, "operator": null }, "geometry": { "type": "Polygon", "coordinates": [ [ [ 79.167062, 12.9390047 ], [ 79.1670864, 12.9388676 ], [ 79.1677323, 12.9390388 ], [ 79.1676961, 12.9391627 ], [ 79.167062, 12.9390047 ] ] ] } },
{ "type": "Feature", "properties": { "element": "way", "id": 485799108, "name": "GOV Muncipal school , Gudiyattam", "amenity": "school", "healthcare": null, "operator": null }, "geometry": { "type": "Polygon", "coordinates": [ [ [ 78.8725014, 12.9449718 ], [ 78.8728984, 12.9449665 ], [ 78.8731398, 12.9450136 ], [ 78.8733865, 12.9450502 ], [ 78.8736065, 12.9450345 ], [ 78.8738533, 12.945092 ], [ 78.8744685, 12.9451695 ], [ 78.8746059, 12.945108 ], [ 78.8744995, 12.9438882 ], [ 78.8736548, 12.9441144 ], [ 78.8732095, 12.9442608 ], [ 78.8725121, 12.9446476 ], [ 78.8725014, 12.9449718 ] ] ] } },
{ "type": "Feature", "properties": { "element": "way", "id": 485799111, "name": "Government Hospital, Gudiyatham", "amenity": "hospital", "healthcare": "hospital", "operator": null }, "geometry": { "type": "Polygon", "coordinates": [ [ [ 78.8707522, 12.9450345 ], [ 78.8707645, 12.9451937 ], [ 78.8708323, 12.9452027 ], [ 78.8708138, 12.9452807 ], [ 78.8707707, 12.9452928 ], [ 78.870783, 12.9453918 ], [ 78.8707306, 12.9454009 ], [ 78.8707368, 12.945569 ], [ 78.8702623, 12.945587 ], [ 78.8702561, 12.945551 ], [ 78.8700035, 12.945575 ], [ 78.8699757, 12.9452237 ], [ 78.8699665, 12.9447726 ], [ 78.8703362, 12.9446952 ], [ 78.8704934, 12.9447673 ], [ 78.8704749, 12.9448994 ], [ 78.8706351, 12.9449234 ], [ 78.8706412, 12.9450165 ], [ 78.8707522, 12.9450345 ] ] ] } },
{ "type": "Feature", "properties": { "element": "way", "id": 485799116, "name": "Fire Station Gudiyattam", "amenity": "fire_station", "healthcare": null, "operator": null }, "geometry": { "type": "Polygon", "coordinates": [ [ [ 78.8735078, 12.9461248 ], [ 78.8738737, 12.9463506 ], [ 78.8739509, 12.9462912 ], [ 78.874016, 12.9463268 ], [ 78.8741583, 12.9461763 ], [ 78.8740445, 12.9461287 ], [ 78.8740526, 12.9460455 ], [ 78.8736607, 12.9458929 ], [ 78.8735485, 12.945998 ], [ 78.8735078, 12.9461248 ] ] ] } },
{ "type": "Feature", "properties": { "element": "way", "id": 741166905, "name": "KINGSTON ENGINEERING COLLEGE", "amenity": "college", "healthcare": null, "operator": null }, "geometry": { "type": "Polygon", "coordinates": [ [ [ 79.1316073, 13.0113212 ], [ 79.1320686, 13.013634 ], [ 79.132707, 13.0136287 ], [ 79.1327298, 13.0137555 ], [ 79.1329336, 13.0148113 ], [ 79.1335183, 13.0146976 ], [ 79.1334271, 13.0142089 ], [ 79.1339475, 13.0141201 ], [ 79.1340387, 13.014107 ], [ 79.135538, 13.0138639 ], [ 79.1355166, 13.0135922 ], [ 79.1362032, 13.0134589 ], [ 79.1361979, 13.0124005 ], [ 79.1365814, 13.012296 ], [ 79.1365197, 13.0121601 ], [ 79.1362059, 13.0119301 ], [ 79.1361228, 13.011789 ], [ 79.1361281, 13.0115877 ], [ 79.1362569, 13.0111853 ], [ 79.1362703, 13.0110677 ], [ 79.1361415, 13.0109266 ], [ 79.1357768, 13.0106757 ], [ 79.1355434, 13.0102575 ], [ 79.1351947, 13.0103203 ], [ 79.1350499, 13.0098995 ], [ 79.1348031, 13.0099648 ], [ 79.1347951, 13.0101164 ], [ 79.1346368, 13.0101347 ], [ 79.1346019, 13.0099727 ], [ 79.1343015, 13.0100171 ], [ 79.1343713, 13.0103751 ], [ 79.1341192, 13.0105084 ], [ 79.1341312, 13.0107358 ], [ 79.1335344, 13.0107907 ], [ 79.1333413, 13.0108037 ], [ 79.1325796, 13.0109266 ], [ 79.1324937, 13.010464 ], [ 79.1323744, 13.010707 ], [ 79.1316113, 13.0111761 ], [ 79.1316073, 13.0113212 ] ] ] } },
{ "type": "Feature", "properties": { "element": "way", "id": 743198485, "name": "Sunbeam School of Excellence Campus", "amenity": "school", "healthcare": null, "operator": "Gandhi Educational Trust" }, "geometry": { "type": "Polygon", "coordinates": [ [ [ 79.1340199, 12.9971538 ], [ 79.135066, 12.9971146 ], [ 79.1352242, 12.9977236 ], [ 79.1354026, 12.9976948 ], [ 79.1354549, 12.9982489 ], [ 79.1354442, 12.9985272 ], [ 79.1353717, 12.9986108 ], [ 79.1353248, 12.9987663 ], [ 79.1353945, 12.9989297 ], [ 79.1349842, 12.9989441 ], [ 79.135019, 12.9993635 ], [ 79.1345362, 12.9993962 ], [ 79.1345336, 12.9993511 ], [ 79.1336437, 12.9994922 ], [ 79.133637, 12.9993786 ], [ 79.1335767, 12.9989199 ], [ 79.1335264, 12.9987716 ], [ 79.1325152, 12.9989166 ], [ 79.1323375, 12.9978889 ], [ 79.1323784, 12.9975263 ], [ 79.1324012, 12.9970584 ], [ 79.1323985, 12.9967892 ], [ 79.1322899, 12.9966795 ], [ 79.1319305, 12.9966475 ], [ 79.1319043, 12.9966481 ], [ 79.1320646, 12.9962286 ], [ 79.1325393, 12.9964286 ], [ 79.1330275, 12.9965527 ], [ 79.1332152, 12.9965174 ], [ 79.1332327, 12.9969826 ], [ 79.1332971, 12.9974583 ], [ 79.134028, 12.9973603 ], [ 79.1340199, 12.9971538 ] ] ] } },
{ "type": "Feature", "properties": { "element": "way", "id": 743198512, "name": "KINGSTON INTERNATIONAL ACADEMY (CBSE)", "amenity": "school", "healthcare": null, "operator": null }, "geometry": { "type": "Polygon", "coordinates": [ [ [ 79.132314, 13.0150726 ], [ 79.133572, 13.0148439 ], [ 79.1334561, 13.0142359 ], [ 79.1355354, 13.0138751 ], [ 79.1355575, 13.0140436 ], [ 79.136328, 13.0139365 ], [ 79.1364386, 13.0143448 ], [ 79.1373291, 13.0141109 ], [ 79.1376865, 13.0150608 ], [ 79.137944, 13.0153744 ], [ 79.1379024, 13.0157808 ], [ 79.1375913, 13.015739 ], [ 79.1377978, 13.0163361 ], [ 79.1373378, 13.0164198 ], [ 79.1371581, 13.0171789 ], [ 79.1364487, 13.017388 ], [ 79.1358948, 13.0151196 ], [ 79.1356587, 13.0151471 ], [ 79.1356775, 13.0152869 ], [ 79.1346998, 13.015411 ], [ 79.1345966, 13.0147263 ], [ 79.1340494, 13.0148243 ], [ 79.1339602, 13.0146904 ], [ 79.1339019, 13.0146499 ], [ 79.1338355, 13.0146388 ], [ 79.1337383, 13.0146656 ], [ 79.1338415, 13.0152046 ], [ 79.1323965, 13.0154561 ], [ 79.132314, 13.0150726 ] ] ] } },
{ "type": "Feature", "properties": { "element": "way", "id": 1021940137, "name": null, "amenity": "school", "healthcare": null, "operator": null }, "geometry": { "type": "Polygon", "coordinates": [ [ [ 79.1234038, 13.0122701 ], [ 79.1224371, 13.0126614 ], [ 79.1225305, 13.0131232 ], [ 79.1225842, 13.013626 ], [ 79.123196, 13.0135714 ], [ 79.1235641, 13.0138168 ], [ 79.1238172, 13.0138013 ], [ 79.1238066, 13.0136427 ], [ 79.1234038, 13.0122701 ] ] ] } },
{ "type": "Feature", "properties": { "element": "way", "id": 1097417456, "name": "Government Law College, Vellore", "amenity": "college", "healthcare": null, "operator": null }, "geometry": { "type": "Polygon", "coordinates": [ [ [ 79.1332062, 12.95126 ], [ 79.1339785, 12.9511475 ], [ 79.1339984, 12.9505307 ], [ 79.1344244, 12.9505035 ], [ 79.1344284, 12.9504298 ], [ 79.1331505, 12.9504026 ], [ 79.1332062, 12.95126 ] ] ] } },
{ "type": "Feature", "properties": { "element": "way", "id": 1097418709, "name": null, "amenity": "college", "healthcare": null, "operator": null }, "geometry": { "type": "Polygon", "coordinates": [ [ [ 79.1341432, 12.946253 ], [ 79.1340682, 12.9441179 ], [ 79.1359427, 12.9443848 ], [ 79.1359134, 12.9449885 ], [ 79.135783, 12.9455 ], [ 79.1349223, 12.9460878 ], [ 79.1341432, 12.946253 ] ] ] } },
{ "type": "Feature", "properties": { "element": "way", "id": 1122801766, "name": "Serkadu Higher Secondary School", "amenity": "school", "healthcare": null, "operator": null }, "geometry": { "type": "Polygon", "coordinates": [ [ [ 79.2082945, 13.0319659 ], [ 79.2092541, 13.0319894 ], [ 79.2092485, 13.0330176 ], [ 79.2079887, 13.033526 ], [ 79.2073866, 13.033105 ], [ 79.2082945, 13.0319659 ] ] ] } },
{ "type": "Feature", "properties": { "element": "way", "id": 1169319670, "name": "Government Primary Healthcare Centre", "amenity": "hospital", "healthcare": "hospital", "operator": null }, "geometry": { "type": "Polygon", "coordinates": [ [ [ 79.2547194, 12.9916571 ], [ 79.2546026, 12.9911109 ], [ 79.2542522, 12.9911626 ], [ 79.2543867, 12.9917023 ], [ 79.2546008, 12.9917368 ], [ 79.2546787, 12.9919972 ], [ 79.2547707, 12.9922168 ], [ 79.255223, 12.9920197 ], [ 79.2549872, 12.9916206 ], [ 79.2547194, 12.9916571 ] ] ] } },
{ "type": "Feature", "properties": { "element": "way", "id": 1337331154, "name": "BS-1 Vellore South Police Station", "amenity": "police", "healthcare": null, "operator": "Tamil Nadu Police" }, "geometry": { "type": "Polygon", "coordinates": [ [ [ 79.1326731, 12.9165084 ], [ 79.1327113, 12.916307 ], [ 79.1328235, 12.916301 ], [ 79.1328227, 12.9163755 ], [ 79.132951, 12.9164849 ], [ 79.1326731, 12.9165084 ] ] ] } },
{ "type": "Feature", "properties": { "element": "way", "id": 1337331156, "name": "Ideal North Police Station", "amenity": "police", "healthcare": null, "operator": null }, "geometry": { "type": "Polygon", "coordinates": [ [ [ 79.1317712, 12.9233208 ], [ 79.1312844, 12.9234229 ], [ 79.131361, 12.9232099 ], [ 79.131762, 12.9232052 ], [ 79.1317712, 12.9233208 ] ] ] } },
{ "type": "Feature", "properties": { "element": "way", "id": 1410949296, "name": "Christian Medical College", "amenity": "college", "healthcare": null, "operator": null }, "geometry": { "type": "Polygon", "coordinates": [ [ [ 79.1343766, 12.8780493 ], [ 79.1345242, 12.8779055 ], [ 79.1348997, 12.8777146 ], [ 79.1352779, 12.8776519 ], [ 79.1353503, 12.8775787 ], [ 79.13553, 12.8773146 ], [ 79.1357365, 12.8770008 ], [ 79.1359484, 12.8765249 ], [ 79.1360664, 12.8760621 ], [ 79.1365465, 12.8757666 ], [ 79.1366082, 12.8754738 ], [ 79.1365814, 12.8752202 ], [ 79.136686, 12.8750293 ], [ 79.136568, 12.8746946 ], [ 79.1356507, 12.8748463 ], [ 79.1343123, 12.8749012 ], [ 79.1341031, 12.8749247 ], [ 79.1341138, 12.8753431 ], [ 79.1342586, 12.8753457 ], [ 79.1343203, 12.877712 ], [ 79.1343766, 12.8780493 ] ] ] } },
{ "type": "Feature", "properties": { "element": "way", "id": 1410949356, "name": "Vellore Medical College", "amenity": "college", "healthcare": null, "operator": null }, "geometry": { "type": "Polygon", "coordinates": [ [ [ 79.1340548, 12.841809 ], [ 79.1346288, 12.8429309 ], [ 79.1353369, 12.8444084 ], [ 79.1358411, 12.8455852 ], [ 79.1380888, 12.8447798 ], [ 79.1397035, 12.8440318 ], [ 79.1387969, 12.844058 ], [ 79.1387325, 12.8428289 ], [ 79.1376114, 12.8429596 ], [ 79.1374826, 12.842217 ], [ 79.1373378, 12.8422431 ], [ 79.1369784, 12.8410977 ], [ 79.1348594, 12.8413226 ], [ 79.1348863, 12.8416887 ], [ 79.1340548, 12.841809 ] ] ] } },
{ "type": "Feature", "properties": { "element": "way", "id": 1428296785, "name": null, "amenity": "fire_station", "healthcare": null, "operator": null }, "geometry": { "type": "Polygon", "coordinates": [ [ [ 79.1543391, 12.96864 ], [ 79.1544654, 12.9686484 ], [ 79.1544759, 12.9685 ], [ 79.1543495, 12.9684915 ], [ 79.1543391, 12.96864 ] ] ] } },
{ "type": "Feature", "properties": { "element": "way", "id": 1524753805, "name": "Narayana e-Techno School", "amenity": "school", "healthcare": null, "operator": null }, "geometry": { "type": "Polygon", "coordinates": [ [ [ 79.149734, 12.9694986 ], [ 79.1497094, 12.970337 ], [ 79.1497084, 12.9703705 ], [ 79.1496992, 12.9706855 ], [ 79.150314, 12.9706591 ], [ 79.1503011, 12.9704356 ], [ 79.1502006, 12.970374 ], [ 79.150217, 12.9699408 ], [ 79.1501916, 12.9695848 ], [ 79.150216, 12.9690879 ], [ 79.1501163, 12.9690997 ], [ 79.1501019, 12.9694986 ], [ 79.149734, 12.9694986 ] ] ] } },
{ "type": "Feature", "properties": { "element": "way", "id": 1546509779, "name": "St. Xavier's Higher Secondary School", "amenity": "school", "healthcare": null, "operator": null }, "geometry": { "type": "Polygon", "coordinates": [ [ [ 79.1308396, 13.0067971 ], [ 79.1307979, 13.0060729 ], [ 79.1314703, 13.0059382 ], [ 79.131631, 13.0067473 ], [ 79.1308396, 13.0067971 ] ] ] } },
{ "type": "Feature", "properties": { "element": "way", "id": 1556788474, "name": null, "amenity": "school", "healthcare": null, "operator": null }, "geometry": { "type": "Polygon", "coordinates": [ [ [ 79.1420719, 12.9642164 ], [ 79.1421202, 12.9647941 ], [ 79.1421363, 12.9656618 ], [ 79.1426459, 12.9656435 ], [ 79.1430965, 12.9655468 ], [ 79.1429973, 12.9651129 ], [ 79.1430134, 12.9648176 ], [ 79.1432065, 12.9647627 ], [ 79.1436061, 12.9647287 ], [ 79.1435927, 12.9638505 ], [ 79.1425198, 12.9639419 ], [ 79.1425145, 12.9641145 ], [ 79.1421685, 12.964151 ], [ 79.1420719, 12.9642164 ] ] ] } }
]
}
